{
  "norad_id": 55432,
  "name": "STARLINK-5637",
  "history": [
    {
      "epoch": "2026-03-28T14:40:12.117504Z",
      "apogee_km": 573.9683622914317,
      "perigee_km": 570.1221314360173,
      "latitude_deg": -2.1793903046935183e-05,
      "longitude_deg": 10.642089864916137,
      "height_km": 574.5515530973003,
      "semi_major_axis_km": 6950.182246863725,
      "eccentricity": 0.0002767,
      "inclination_deg": 70.0001,
      "raan_deg": 56.7218,
      "arg_perigee_deg": 267.6438,
      "mean_anomaly_deg": 92.4404,
      "mean_motion_rev_day": 14.98333442
    },
    {
      "epoch": "2026-03-29T05:05:24.620928Z",
      "apogee_km": 573.9508886140147,
      "perigee_km": 570.1449673474517,
      "latitude_deg": -7.633638493855646e-05,
      "longitude_deg": 152.2330583780335,
      "height_km": 574.5841398150856,
      "semi_major_axis_km": 6950.184927980733,
      "eccentricity": 0.0002738,
      "inclination_deg": 70.0001,
      "raan_deg": 55.2071,
      "arg_perigee_deg": 266.7166,
      "mean_anomaly_deg": 93.3679,
      "mean_motion_rev_day": 14.98332575
    },
    {
      "epoch": "2026-03-30T03:31:17.719968Z",
      "apogee_km": 573.9213548193266,
      "perigee_km": 570.1877119275978,
      "latitude_deg": 4.7316493927820084e-05,
      "longitude_deg": 172.4841321703948,
      "height_km": 574.5577208535782,
      "semi_major_axis_km": 6950.191533373461,
      "eccentricity": 0.0002686,
      "inclination_deg": 70.0004,
      "raan_deg": 52.8506,
      "arg_perigee_deg": 267.6663,
      "mean_anomaly_deg": 92.4189,
      "mean_motion_rev_day": 14.98330439
    },
    {
      "epoch": "2026-03-30T05:07:25.831488Z",
      "apogee_km": 573.9344948272374,
      "perigee_km": 570.1783322988122,
      "latitude_deg": -6.945582500053061e-05,
      "longitude_deg": 148.21628977818963,
      "height_km": 574.5721059041139,
      "semi_major_axis_km": 6950.1934135630245,
      "eccentricity": 0.00027022,
      "inclination_deg": 70.0004,
      "raan_deg": 52.6824,
      "arg_perigee_deg": 267.2993,
      "mean_anomaly_deg": 92.7856,
      "mean_motion_rev_day": 14.98329831
    },
    {
      "epoch": "2026-03-30T14:44:14.074656Z",
      "apogee_km": 573.9455701055049,
      "perigee_km": 570.1602186814225,
      "latitude_deg": 8.00445036679206e-05,
      "longitude_deg": 2.6105228108920784,
      "height_km": 574.5431902528039,
      "semi_major_axis_km": 6950.189894393463,
      "eccentricity": 0.00027232,
      "inclination_deg": 70.0006,
      "raan_deg": 51.6724,
      "arg_perigee_deg": 268.0902,
      "mean_anomaly_deg": 91.9946,
      "mean_motion_rev_day": 14.98330969
    },
    {
      "epoch": "2026-03-30T21:08:46.220928Z",
      "apogee_km": 573.9616726058593,
      "perigee_km": 570.1414319662108,
      "latitude_deg": -2.356146683406308e-05,
      "longitude_deg": -94.45976256569178,
      "height_km": 574.5372694413121,
      "semi_major_axis_km": 6950.188552286035,
      "eccentricity": 0.00027483,
      "inclination_deg": 70.0004,
      "raan_deg": 50.9993,
      "arg_perigee_deg": 268.2457,
      "mean_anomaly_deg": 91.8387,
      "mean_motion_rev_day": 14.98331403
    },
    {
      "epoch": "2026-03-31T20:00:01.999008Z",
      "apogee_km": 574.0632691259707,
      "perigee_km": 570.139164628722,
      "latitude_deg": 69.48556981040588,
      "longitude_deg": 24.070096313148003,
      "height_km": 585.421303019913,
      "semi_major_axis_km": 6950.238216877346,
      "eccentricity": 0.0002823,
      "inclination_deg": 70.002,
      "raan_deg": 48.5967,
      "arg_perigee_deg": 264.3298,
      "mean_anomaly_deg": 190.792,
      "mean_motion_rev_day": 14.98315343
    },
    {
      "epoch": "2026-04-01T21:12:48.198816Z",
      "apogee_km": 573.9704024879875,
      "perigee_km": 570.1311187690162,
      "latitude_deg": -5.249910681804959e-05,
      "longitude_deg": -102.49226202817944,
      "height_km": 574.5030916455878,
      "semi_major_axis_km": 6950.187760628502,
      "eccentricity": 0.0002762,
      "inclination_deg": 70.001,
      "raan_deg": 45.9491,
      "arg_perigee_deg": 269.2528,
      "mean_anomaly_deg": 90.8314,
      "mean_motion_rev_day": 14.98331659
    },
    {
      "epoch": "2026-04-02T21:14:48.980832Z",
      "apogee_km": 573.9382003887349,
      "perigee_km": 570.1684171652541,
      "latitude_deg": 7.05135710219707e-05,
      "longitude_deg": -106.50729799004506,
      "height_km": 574.4693193203244,
      "semi_major_axis_km": 6950.190308776994,
      "eccentricity": 0.0002712,
      "inclination_deg": 70.001,
      "raan_deg": 43.4243,
      "arg_perigee_deg": 270.341,
      "mean_anomaly_deg": 89.7439,
      "mean_motion_rev_day": 14.98330835
    },
    {
      "epoch": "2026-04-02T22:50:57.037920Z",
      "apogee_km": 573.9398387595611,
      "perigee_km": 570.1663025625958,
      "latitude_deg": 5.21840355371951e-06,
      "longitude_deg": -130.77499435764489,
      "height_km": 574.4692799972645,
      "semi_major_axis_km": 6950.190070661079,
      "eccentricity": 0.00027147,
      "inclination_deg": 70.001,
      "raan_deg": 43.256,
      "arg_perigee_deg": 270.3349,
      "mean_anomaly_deg": 89.7499,
      "mean_motion_rev_day": 14.98330912
    },
    {
      "epoch": "2026-04-03T21:16:50.451456Z",
      "apogee_km": 573.8985104795047,
      "perigee_km": 570.2399219272957,
      "latitude_deg": 5.197986229679399e-05,
      "longitude_deg": -110.52496299016859,
      "height_km": 574.4669665053375,
      "semi_major_axis_km": 6950.2062162034,
      "eccentricity": 0.0002632,
      "inclination_deg": 70.0013,
      "raan_deg": 40.8998,
      "arg_perigee_deg": 270.9212,
      "mean_anomaly_deg": 89.1646,
      "mean_motion_rev_day": 14.98325691
    },
    {
      "epoch": "2026-04-04T13:18:10.855584Z",
      "apogee_km": 573.8170457882943,
      "perigee_km": 570.300246791272,
      "latitude_deg": -2.365328811711685e-05,
      "longitude_deg": 6.799678003192523,
      "height_km": 574.5375056317156,
      "semi_major_axis_km": 6950.195646289782,
      "eccentricity": 0.000253,
      "inclination_deg": 70.0018,
      "raan_deg": 39.2175,
      "arg_perigee_deg": 268.3136,
      "mean_anomaly_deg": 91.7733,
      "mean_motion_rev_day": 14.98329109
    },
    {
      "epoch": "2026-04-05T05:19:31.215648Z",
      "apogee_km": 573.8008091195879,
      "perigee_km": 570.2923564469993,
      "latitude_deg": 1.0135551227324735e-05,
      "longitude_deg": 124.1231424190091,
      "height_km": 574.4270165670133,
      "semi_major_axis_km": 6950.183582783294,
      "eccentricity": 0.0002524,
      "inclination_deg": 70.0018,
      "raan_deg": 37.5338,
      "arg_perigee_deg": 271.5241,
      "mean_anomaly_deg": 88.5629,
      "mean_motion_rev_day": 14.9833301
    },
    {
      "epoch": "2026-04-05T21:20:51.567936Z",
      "apogee_km": 573.8648814518547,
      "perigee_km": 570.234104028048,
      "latitude_deg": -4.487671364991564e-06,
      "longitude_deg": -118.55277857376693,
      "height_km": 574.3885332566605,
      "semi_major_axis_km": 6950.186492739951,
      "eccentricity": 0.0002612,
      "inclination_deg": 70.0016,
      "raan_deg": 35.8507,
      "arg_perigee_deg": 272.7823,
      "mean_anomaly_deg": 87.3037,
      "mean_motion_rev_day": 14.98332069
    },
    {
      "epoch": "2026-04-06T05:21:31.686624Z",
      "apogee_km": 573.9490758953561,
      "perigee_km": 570.1318994155863,
      "latitude_deg": 2.427305108876536e-05,
      "longitude_deg": 120.10896388791917,
      "height_km": 574.3689895045139,
      "semi_major_axis_km": 6950.177487655471,
      "eccentricity": 0.00027461,
      "inclination_deg": 70.0009,
      "raan_deg": 35.0086,
      "arg_perigee_deg": 272.9657,
      "mean_anomaly_deg": 87.1188,
      "mean_motion_rev_day": 14.98334981
    },
    {
      "epoch": "2026-04-07T13:24:13.585248Z",
      "apogee_km": 573.9401674848823,
      "perigee_km": 570.1789991018677,
      "latitude_deg": 2.4303910500323528e-05,
      "longitude_deg": -5.2480574956092525,
      "height_km": 574.3502797954193,
      "semi_major_axis_km": 6950.196583293375,
      "eccentricity": 0.00027058,
      "inclination_deg": 70.0006,
      "raan_deg": 31.6422,
      "arg_perigee_deg": 274.1616,
      "mean_anomaly_deg": 85.9234,
      "mean_motion_rev_day": 14.98328806
    },
    {
      "epoch": "2026-04-07T19:48:16.193952Z",
      "apogee_km": 579.550428357421,
      "perigee_km": 562.6304493892512,
      "latitude_deg": 1.4699224848185012e-06,
      "longitude_deg": -102.19610456317723,
      "height_km": 573.2221116109139,
      "semi_major_axis_km": 6949.227438873336,
      "eccentricity": 0.0012174,
      "inclination_deg": 70.0008,
      "raan_deg": 30.9679,
      "arg_perigee_deg": 272.0278,
      "mean_anomaly_deg": 87.9487,
      "mean_motion_rev_day": 14.98642254
    },
    {
      "epoch": "2026-04-08T08:00:03.000384Z",
      "apogee_km": 573.973894726103,
      "perigee_km": 570.074437302299,
      "latitude_deg": -36.09518936555092,
      "longitude_deg": -91.62066842013773,
      "height_km": 584.1327939288362,
      "semi_major_axis_km": 6950.161166014201,
      "eccentricity": 0.00028053,
      "inclination_deg": 70.002,
      "raan_deg": 29.6883,
      "arg_perigee_deg": 277.67,
      "mean_anomaly_deg": 300.904,
      "mean_motion_rev_day": 14.98340259
    }
  ]
}